COSMOS 2058             
1 20465U 90010A   26203.27418607  .00002648  00000+0  15168-3 0  9998
2 20465  82.4676 274.7499 0008600 221.4430 138.6149 15.12187293962574
SL-14 R/B               
1 20466U 90010B   26203.30548280  .00000295  00000+0  32715-4 0  9998
2 20466  82.5041 140.9663 0018841 212.4235 147.5824 14.83666097948440
SL-14 R/B               
1 20511U 90018B   26203.45289283  .00000267  00000+0  30517-4 0  9995
2 20511  82.5212  97.1462 0016458  14.0181 346.1487 14.82237270942542
HST                     
1 20580U 90037B   26203.21405009  .00005689  00000+0  17638-3 0  9993
2 20580  28.4723 201.1073 0002035 171.5650 188.4980 15.31110914793948
SL-16 R/B               
1 20625U 90046B   26203.43516814  .00000249  00000+0  15315-3 0  9991
2 20625  70.9999  14.9168 0012178 101.3744 258.8747 14.15029394867457
COSMOS 2084             
1 20663U 90055A   26203.51421994  .00001197  00000+0  94928-4 0  9997
2 20663  62.7873 235.5018 0009040 324.3695  35.6801 15.06240926956627
SL-6 R/B(2)             
1 20666U 90055D   26203.28630756  .00001728  00000+0  13603-3 0  9992
2 20666  62.7812 155.9269 0046218   9.9734 350.2271 15.04110134958437
SL-8 R/B                
1 20775U 90078B   26203.51102816  .00010518  00000+0  29840-3 0  9992
2 20775  82.9030 129.6866 0342721 278.5985  77.6552 14.93700925829399
SL-8 R/B                
1 21088U 91006B   26203.57510478  .00000097  00000+0  82081-4 0  9993
2 21088  82.9401  69.7039 0022982  20.5575   5.1026 13.77510451782641
OKEAN-3                 
1 21397U 91039A   26203.43391163  .00002029  00000+0  13908-3 0  9993
2 21397  82.5152 206.1974 0013086 226.5877 133.4262 15.05462669885300
COSMOS 2151             
1 21422U 91042A   26203.53708471  .00001135  00000+0  87796-4 0  9995
2 21422  82.4983 313.5663 0011313 329.6048  30.4519 15.00527993883412
SL-14 R/B               
1 21423U 91042B   26203.39944660  .00000255  00000+0  29203-4 0  9993
2 21423  82.4927  93.8751 0017595 153.7271 206.4840 14.81920923873025
ERS-1                   
1 21574U 91050A   26203.05744042  .00000284  00000+0  10530-3 0  9998
2 21574  98.7797 224.6069 0032358 161.6345 198.6018 14.39537071835069
ARIANE 40 R/B           
1 21610U 91050F   26203.55222121  .00000182  00000+0  66697-4 0  9996
2 21610  98.1857 250.5881 0003799  44.8042 315.3455 14.42974760838446
INTERCOSMOS 25          
1 21819U 91086A   26203.52225288  .00001085  00000+0  21045-3 0  9990
2 21819  82.5999 228.4272 1484912 186.1180 171.9800 12.12247816513027
SL-8 R/B                
1 21876U 92008B   26203.33910613  .00000143  00000+0  13043-3 0  9993
2 21876  82.9281 167.6527 0035984 117.2682  35.5369 13.75985176727937
SL-8 R/B                
1 21938U 92020B   26203.54394669 -.00000012  00000+0 -27755-4 0  9999
2 21938  82.9274  53.5895 0027767 282.0946 105.1344 13.75549747719672
USA 81                  
1 21949U 92023A   26203.55214682  .00000118  00000+0  36223-4 0  9996
2 21949  85.0047  53.5897 0001649  65.2500 294.8864 14.32406254114093
COSMOS 2219             
1 22219U 92076A   26203.13478088 -.00000287  00000+0 -12577-3 0  9995
2 22219  71.0605  97.0173 0018666 347.1838  12.8807 14.14105971737382
SL-16 R/B               
1 22220U 92076B   26203.33117389 -.00000236  00000+0 -93408-4 0  9990
2 22220  70.9993 264.7496 0015011 252.9930 177.3599 14.16877254740909
COSMOS 2221             
1 22236U 92080A   26203.57531321  .00001269  00000+0  10883-3 0  9994
2 22236  82.5053 149.8604 0015952  97.7802 262.5232 14.96619278800965
SL-16 R/B               
1 22285U 92093B   26203.36512386 -.00000165  00000+0 -60356-4 0  9996
2 22285  71.0210  81.5436 0002176 113.8006 246.3346 14.15463299732211
COSMOS 2228             
1 22286U 92094A   26203.56555039  .00001229  00000+0  10242-3 0  9990
2 22286  82.5184 108.1552 0016876 202.7578 157.2899 14.97690694796245
SL-16 R/B               
1 22566U 93016B   26203.34892188  .00000224  00000+0  13954-3 0  9998
2 22566  71.0086 292.3559 0008460 125.1332 235.0584 14.15316977721220
COSMOS 2242             
1 22626U 93024A   26203.27389335  .00001282  00000+0  10891-3 0  9993
2 22626  82.5203 137.9749 0015174 207.1557 152.8874 14.96999842800526
SL-16 R/B               
1 22803U 93059B   26203.42713340  .00000226  00000+0  13545-3 0  9998
2 22803  70.9902  86.9899 0017104 357.6562   2.4478 14.17251175698620
ARIANE 40 R/B           
1 22830U 93061H   26203.46847486  .00000106  00000+0  54496-4 0  9992
2 22830  98.4800 269.5895 0009670 241.6802 118.3407 14.32920449713402
COSMOS 2278             
1 23087U 94023A   26203.53759547  .00000262  00000+0  16146-3 0  9996
2 23087  71.0514 252.9636 0009230 194.7964 165.2890 14.14395906663870
SL-16 R/B               
1 23088U 94023B   26203.24078866  .00000346  00000+0  20312-3 0  9996
2 23088  70.9999 148.3157 0001222  99.1016 261.0245 14.15028693665127
SL-16 R/B               
1 23343U 94074B   26203.53570034  .00000302  00000+0  46991-4 0  9996
2 23343  97.6984 228.7820 0007648 133.1756  20.3360 14.79528739707182
