OBJECT_NAME,OBJECT_ID,EPOCH,MEAN_MOTION,ECCENTRICITY,INCLINATION,RA_OF_ASC_NODE,ARG_OF_PERICENTER,MEAN_ANOMALY,EPHEMERIS_TYPE,CLASSIFICATION_TYPE,NORAD_CAT_ID,ELEMENT_SET_NO,REV_AT_EPOCH,BSTAR,MEAN_MOTION_DOT,MEAN_MOTION_DDOT
COSMOS 2058,1990-010A,2026-07-22T06:34:49.676448,15.12187293,.00086009,82.4676,274.7499,221.4430,138.6149,0,U,20465,999,96257,.15168008E-3,.2648E-4,0
SL-14 R/B,1990-010B,2026-07-22T07:19:53.713920,14.83666097,.00188415,82.5041,140.9663,212.4235,147.5824,0,U,20466,999,94844,.32715078E-4,.295E-5,0
SL-14 R/B,1990-018B,2026-07-22T10:52:09.940512,14.82237270,.00164587,82.5212,97.1462,14.0181,346.1487,0,U,20511,999,94254,.30516773E-4,.267E-5,0
HST,1990-037B,2026-07-22T05:08:13.927776,15.31110914,.00020355,28.4723,201.1073,171.5650,188.4980,0,U,20580,999,79394,.17637821E-3,.5689E-4,0
SL-16 R/B,1990-046B,2026-07-22T10:26:38.527296,14.15029394,.00121783,70.9999,14.9168,101.3744,258.8747,0,U,20625,999,86745,.15314951E-3,.249E-5,0
COSMOS 2084,1990-055A,2026-07-22T12:20:28.602816,15.06240926,.00090403,62.7873,235.5018,324.3695,35.6801,0,U,20663,999,95662,.94928076E-4,.1197E-4,0
SL-6 R/B(2),1990-055D,2026-07-22T06:52:16.973184,15.04110134,.00462182,62.7812,155.9269,9.9734,350.2271,0,U,20666,999,95843,.13602615E-3,.1728E-4,0
SL-8 R/B,1990-078B,2026-07-22T12:15:52.833024,14.93700925,.03427217,82.9030,129.6866,278.5985,77.6552,0,U,20775,999,82939,.29839876E-3,.10518E-3,0
SL-8 R/B,1991-006B,2026-07-22T13:48:09.052992,13.77510451,.00229829,82.9401,69.7039,20.5575,5.1026,0,U,21088,999,78264,.82080539E-4,.97E-6,0
OKEAN-3,1991-039A,2026-07-22T10:24:49.964832,15.05462669,.00130862,82.5152,206.1974,226.5877,133.4262,0,U,21397,999,88530,.13907923E-3,.2029E-4,0
COSMOS 2151,1991-042A,2026-07-22T12:53:24.118944,15.00527993,.0011313,82.4983,313.5663,329.6048,30.4519,0,U,21422,999,88341,.87796437E-4,.1135E-4,0
SL-14 R/B,1991-042B,2026-07-22T09:35:12.186240,14.81920923,.00175957,82.4927,93.8751,153.7271,206.4840,0,U,21423,999,87302,.29203127E-4,.255E-5,0
ERS-1,1991-050A,2026-07-22T01:22:42.852288,14.39537071,.00323586,98.7797,224.6069,161.6345,198.6018,0,U,21574,999,83506,.10529695E-3,.284E-5,0
ARIANE 40 R/B,1991-050F,2026-07-22T13:15:11.912544,14.42974760,.00037998,98.1857,250.5881,44.8042,315.3455,0,U,21610,999,83844,.6669706E-4,.182E-5,0
INTERCOSMOS 25,1991-086A,2026-07-22T12:32:02.648832,12.12247816,.14849122,82.5999,228.4272,186.1180,171.9800,0,U,21819,999,51302,.2104502E-3,.1085E-4,0
SL-8 R/B,1992-008B,2026-07-22T08:08:18.769632,13.75985176,.00359845,82.9281,167.6527,117.2682,35.5369,0,U,21876,999,72793,.13042696E-3,.143E-5,0
SL-8 R/B,1992-020B,2026-07-22T13:03:16.994016,13.75549747,.00277676,82.9274,53.5895,282.0946,105.1344,0,U,21938,999,71967,-.27755341E-4,-.12E-6,0
USA 81,1992-023A,2026-07-22T13:15:05.485248,14.32406254,.00016491,85.0047,53.5897,65.2500,294.8864,0,U,21949,999,11409,.36222859E-4,.118E-5,0
COSMOS 2219,1992-076A,2026-07-22T03:14:05.068032,14.14105971,.00186664,71.0605,97.0173,347.1838,12.8807,0,U,22219,999,73738,-.1257726E-3,-.287E-5,0
SL-16 R/B,1992-076B,2026-07-22T07:56:53.424096,14.16877254,.00150113,70.9993,264.7496,252.9930,177.3599,0,U,22220,999,74090,-.93408479E-4,-.236E-5,0
COSMOS 2221,1992-080A,2026-07-22T13:48:27.061344,14.96619278,.00159524,82.5053,149.8604,97.7802,262.5232,0,U,22236,999,80096,.10883001E-3,.1269E-4,0
SL-16 R/B,1992-093B,2026-07-22T08:45:46.701504,14.15463299,.00021762,71.0210,81.5436,113.8006,246.3346,0,U,22285,999,73221,-.6035567E-4,-.165E-5,0
COSMOS 2228,1992-094A,2026-07-22T13:34:23.553696,14.97690694,.00168765,82.5184,108.1552,202.7578,157.2899,0,U,22286,999,79624,.1024179E-3,.1229E-4,0
SL-16 R/B,1993-016B,2026-07-22T08:22:26.850432,14.15316977,.00084602,71.0086,292.3559,125.1332,235.0584,0,U,22566,999,72122,.13954243E-3,.224E-5,0
COSMOS 2242,1993-024A,2026-07-22T06:34:24.385440,14.96999842,.00151744,82.5203,137.9749,207.1557,152.8874,0,U,22626,999,80052,.10890541E-3,.1282E-4,0
SL-16 R/B,1993-059B,2026-07-22T10:15:04.325760,14.17251175,.0017104,70.9902,86.9899,357.6562,2.4478,0,U,22803,999,69862,.13544867E-3,.226E-5,0
ARIANE 40 R/B,1993-061H,2026-07-22T11:14:36.227904,14.32920449,.00096701,98.4800,269.5895,241.6802,118.3407,0,U,22830,999,71340,.54495779E-4,.106E-5,0
COSMOS 2278,1994-023A,2026-07-22T12:54:08.248608,14.14395906,.000923,71.0514,252.9636,194.7964,165.2890,0,U,23087,999,66387,.16146358E-3,.262E-5,0
SL-16 R/B,1994-023B,2026-07-22T05:46:44.140224,14.15028693,.00012226,70.9999,148.3157,99.1016,261.0245,0,U,23088,999,66512,.20312171E-3,.346E-5,0
SL-16 R/B,1994-074B,2026-07-22T12:51:24.509376,14.79528739,.00076482,97.6984,228.7820,133.1756,20.3360,0,U,23343,999,70718,.46990715E-4,.302E-5,0
